[{"OBJECT_NAME":"STARLINK-3621","OBJECT_ID":"2022-017B","EPOCH":"2026-03-09T22:40:21.234144","MEAN_MOTION":15.08835843,"ECCENTRICITY":0.0001258,"INCLINATION":53.2196,"RA_OF_ASC_NODE":337.9738,"ARG_OF_PERICENTER":87.3423,"MEAN_ANOMALY":272.7713,"EPHEMERIS_TYPE":0,"CLASSIFICATION_TYPE":"U","NORAD_CAT_ID":51769,"ELEMENT_SET_NO":999,"REV_AT_EPOCH":22264,"BSTAR":1.2178376e-5,"MEAN_MOTION_DOT":-9.4e-7,"MEAN_MOTION_DDOT":0},{"OBJECT_NAME":"CZ-4C R\/B","OBJECT_ID":"2020-103C","EPOCH":"2026-03-09T22:29:51.645120","MEAN_MOTION":15.00867026,"ECCENTRICITY":0.00868382,"INCLINATION":98.3813,"RA_OF_ASC_NODE":98.2397,"ARG_OF_PERICENTER":305.3689,"MEAN_ANOMALY":53.9441,"EPHEMERIS_TYPE":0,"CLASSIFICATION_TYPE":"U","NORAD_CAT_ID":47304,"ELEMENT_SET_NO":999,"REV_AT_EPOCH":28329,"BSTAR":0.00023135286,"MEAN_MOTION_DOT":3.11e-5,"MEAN_MOTION_DDOT":0}]
